ONEWEB-0108             
1 48076U 21025AL  23264.24502363  .00000932  00000+0  25174-2 0  9991
2 48076  87.9072 159.1693 0001929  85.2558 274.8791 13.13469281122380
ONEWEB-0169             
1 48077U 21025AM  23264.27463606 -.00000460  00000+0 -12951-2 0  9998
2 48077  87.9078 159.1639 0001595  87.4139 272.7173 13.13469963121045
ONEWEB-0176             
1 48210U 21031A   23264.52333242  .00000134  00000+0  32680-3 0  9992
2 48210  87.8983 128.7012 0001737  79.3246 280.8079 13.14503734116980
ONEWEB-0184             
1 48211U 21031B   23264.57406849 -.00000170  00000+0 -49375-3 0  9993
2 48211  87.8994 128.6717 0002821  68.3425 291.8005 13.14500452116969
ONEWEB-0179             
1 48212U 21031C   23264.54237556  .00000247  00000+0  63172-3 0  9992
2 48212  87.8995 128.6729 0001535  70.3698 289.7597 13.14501518117002
ONEWEB-0180             
1 48213U 21031D   23264.57619295 -.00000237  00000+0 -67444-3 0  9997
2 48213  87.8994 128.6689 0001575  70.1668 289.9631 13.14501175116892
ONEWEB-0218             
1 48214U 21031E   23264.14063072  .00000202  00000+0  51033-3 0  9994
2 48214  87.8995 128.7573 0002721  57.9295 302.2099 13.14504799116993
ONEWEB-0209             
1 48215U 21031F   23264.13006587 -.00000021  00000+0 -90233-4 0  9999
2 48215  87.8987 128.7992 0001640  76.1025 284.0287 13.14504332116992
